COSMOS 2251 DEB         
1 39553U 93036BUK 17340.23506554  .00000614  00000-0  41752-3 0  9994
2 39553  74.0297 309.2545 0219638  24.2280 336.8988 13.91006612348246
